[{"OBJECT_NAME":"STARLINK-2657","OBJECT_ID":"2021-044T","EPOCH":"2026-03-09T08:45:14.395680","MEAN_MOTION":15.30198894,"ECCENTRICITY":0.0001427,"INCLINATION":53.1598,"RA_OF_ASC_NODE":115.475,"ARG_OF_PERICENTER":84.8607,"MEAN_ANOMALY":275.2557,"EPHEMERIS_TYPE":0,"CLASSIFICATION_TYPE":"U","NORAD_CAT_ID":48655,"ELEMENT_SET_NO":999,"REV_AT_EPOCH":26377,"BSTAR":9.1872871e-5,"MEAN_MOTION_DOT":2.363e-5,"MEAN_MOTION_DDOT":0},{"OBJECT_NAME":"ORBITER SN3","OBJECT_ID":"2023-084AE","EPOCH":"2026-03-09T23:12:21.976128","MEAN_MOTION":15.32943891,"ECCENTRICITY":0.00075889,"INCLINATION":97.61,"RA_OF_ASC_NODE":206.6768,"ARG_OF_PERICENTER":331.7947,"MEAN_ANOMALY":28.2883,"EPHEMERIS_TYPE":0,"CLASSIFICATION_TYPE":"U","NORAD_CAT_ID":56960,"ELEMENT_SET_NO":999,"REV_AT_EPOCH":15228,"BSTAR":0.00032835432,"MEAN_MOTION_DOT":0.00010378,"MEAN_MOTION_DDOT":0}]
